{"spkid": "54248966", "covariance": {"data": [["1.7637979138285E-13", "-2.832838529869836E-13", "-1.951981234896119E-11", "-1.749406449016609E-11", "-2.921909227539902E-11", "9.387853747379043E-13"], ["-2.832838529869836E-13", "4.55178995254588E-13", "3.146507794433612E-11", "2.8593478964677E-11", "4.65573112994489E-11", "-1.403298422042293E-12"], ["-1.951981234896119E-11", "3.146507794433612E-11", "2.438299595770388E-9", "3.52065139549527E-9", "1.914631433243755E-9", "4.149003291515392E-10"], ["-1.749406449016609E-11", "2.8593478964677E-11", "3.52065139549527E-9", "1.327789312541237E-8", "-7.133021350059378E-9", "4.491575561241727E-9"], ["-2.921909227539902E-11", "4.65573112994489E-11", "1.914631433243755E-9", "-7.133021350059378E-9", "1.361875573785167E-8", "-4.238274060296351E-9"], ["9.387853747379043E-13", "-1.403298422042293E-12", "4.149003291515392E-10", "4.491575561241727E-9", "-4.238274060296351E-9", "2.163145595946705E-9"]], "elements": [{"units": null, "title": "eccentricity", "value": ".4902124328225648", "sigma": 4.19975941433375e-07, "name": "e", "label": "e"}, {"name": "q", "sigma": 6.74669545225355e-07, "value": ".8067627053958362", "title": "perihelion distance", "units": "au", "label": "q"}, {"label": "tp", "title": "time of perihelion passage", "value": "2459594.967759625142", "units": "TDB", "sigma": 4.9379141302481e-05, "name": "tp"}, {"label": "node", "units": "deg", "title": "longitude of the ascending node", "value": "150.9501785094843", "sigma": 0.000115229740628938, "name": "om"}, {"title": "argument of perihelion", "value": "305.5381163462711", "units": "deg", "name": "w", "sigma": 0.000116699424753731, "label": "peri"}, {"label": "i", "name": "i", "sigma": 4.65096290669653e-05, "title": "inclination", "value": "12.67711602498914", "units": "deg"}], "labels": ["e", "q", "tp", "node", "peri", "i"], "epoch": "2459726.5"}, "elements": [{"units": null, "value": ".4902389157109731", "title": "eccentricity", "name": "e", "sigma": "4.2202E-7", "label": "e"}, {"sigma": "2.6223E-8", "name": "a", "title": "semi-major axis", "value": "1.581419785964961", "units": "au", "label": "a"}, {"label": "q", "units": "au", "title": "perihelion distance", "value": ".8061462648096195", "sigma": "6.7439E-7", "name": "q"}, {"sigma": "4.6552E-5", "name": "i", "value": "12.67806067102911", "title": "inclination; angle with respect to x-y ecliptic plane", "units": "deg", "label": "i"}, {"sigma": ".00011524", "name": "om", "units": "deg", "value": "150.913031486615", "title": "longitude of the ascending node", "label": "node"}, {"label": "peri", "units": "deg", "title": "argument of perihelion", "value": "305.4987938187835", "name": "w", "sigma": ".00011649"}, {"label": "M", "name": "ma", "sigma": "4.2961E-5", "units": "deg", "value": "75.23092785053541", "title": "mean anomaly"}, {"sigma": "8.3397E-5", "name": "tp", "value": "2461048.703032171024", "title": "time of perihelion passage", "units": "TDB", "label": "tp"}, {"sigma": "1.8067E-5", "name": "per", "title": "sidereal orbital period", "value": "726.3888666507046", "units": "d", "label": "period"}, {"label": "n", "sigma": "1.2327E-8", "name": "n", "title": "mean motion", "value": ".4956023096277873", "units": "deg/d"}, {"name": "ad", "sigma": "3.9079E-8", "units": "au", "value": "2.356693307120303", "title": "aphelion distance", "label": "Q"}], "epoch": "2461200.5"}